start=new Date('2022-01-04T00:00:00.000Z').valueOf();
sats=[{"GP_ID":"193019774","CLASSIFICATION_TYPE":"U","MEAN_MOTION_DOT":"0.00063993","ARG_OF_PERICENTER":"280.1044","SITE":"AFWTR","INCLINATION":"69.9980","REV_AT_EPOCH":"368","MEAN_MOTION_DDOT":"0.0000000000000","MEAN_ANOMALY":"268.9117","ELEMENT_SET_NO":"999","RCS_SIZE":"LARGE","EPHEMERIS_TYPE":"0","PERIAPSIS":"357.266","FILE":"3256498","ECCENTRICITY":"0.00035570","BSTAR":"0.00053409000000","OBJECT_ID":"2021-082AU","TLE_LINE2":"2 49172  69.9980 172.5517 0003557 280.1044 268.9117 15.69733079  3684","COUNTRY_CODE":"US","DECAY_DATE":null,"LAUNCH_DATE":"2021-09-14","NORAD_CAT_ID":"49172","APOAPSIS":"362.059","MEAN_MOTION":"15.69733079","OBJECT_NAME":"STARLINK-3091","TIME_SYSTEM":"UTC","REF_FRAME":"TEME","CENTER_NAME":"EARTH","RA_OF_ASC_NODE":"172.5517","TLE_LINE1":"1 49172U 21082AU  22003.91667824  .00063993  00000-0  53409-3 0  9990","PERIOD":"91.735","MEAN_ELEMENT_THEORY":"SGP4","EPOCH":"2022-01-03T22:00:00.999936","OBJECT_TYPE":"PAYLOAD","SEMIMAJOR_AXIS":"6737.798"},{"RCS_SIZE":"LARGE","EPHEMERIS_TYPE":"0","PERIAPSIS":"357.249","FILE":"3256498","MEAN_MOTION_DOT":"0.00062782","GP_ID":"193019524","CLASSIFICATION_TYPE":"U","REV_AT_EPOCH":"368","SITE":"AFWTR","INCLINATION":"69.9999","ARG_OF_PERICENTER":"271.8933","MEAN_MOTION_DDOT":"0.0000000000000","ELEMENT_SET_NO":"999","MEAN_ANOMALY":"183.5383","TLE_LINE2":"2 49173  69.9999 172.2421 0003547 271.8933 183.5383 15.69741332  3687","OBJECT_ID":"2021-082AV","ECCENTRICITY":"0.00035470","BSTAR":"0.00052392000000","MEAN_MOTION":"15.69741332","APOAPSIS":"362.029","NORAD_CAT_ID":"49173","TIME_SYSTEM":"UTC","OBJECT_NAME":"STARLINK-3045","COUNTRY_CODE":"US","DECAY_DATE":null,"LAUNCH_DATE":"2021-09-14","PERIOD":"91.735","EPOCH":"2022-01-03T22:00:00.999936","MEAN_ELEMENT_THEORY":"SGP4","OBJECT_TYPE":"PAYLOAD","SEMIMAJOR_AXIS":"6737.774","REF_FRAME":"TEME","CENTER_NAME":"EARTH","TLE_LINE1":"1 49173U 21082AV  22003.91667824  .00062782  00000-0  52392-3 0  9996","RA_OF_ASC_NODE":"172.2421"},{"SEMIMAJOR_AXIS":"6737.873","OBJECT_TYPE":"PAYLOAD","MEAN_ELEMENT_THEORY":"SGP4","EPOCH":"2022-01-03T22:00:00.999936","PERIOD":"91.737","RA_OF_ASC_NODE":"172.5603","TLE_LINE1":"1 49174U 21082AW  22003.91667824  .00063853  00000-0  53353-3 0  9995","CENTER_NAME":"EARTH","REF_FRAME":"TEME","TIME_SYSTEM":"UTC","OBJECT_NAME":"STARLINK-3047","NORAD_CAT_ID":"49174","APOAPSIS":"362.061","MEAN_MOTION":"15.69706821","LAUNCH_DATE":"2021-09-14","DECAY_DATE":null,"COUNTRY_CODE":"US","OBJECT_ID":"2021-082AW","TLE_LINE2":"2 49174  69.9988 172.5603 0003448 282.8015 261.9815 15.69706821  3689","BSTAR":"0.00053353000000","ECCENTRICITY":"0.00034480","FILE":"3256498","PERIAPSIS":"357.415","EPHEMERIS_TYPE":"0","RCS_SIZE":"LARGE","MEAN_ANOMALY":"261.9815","ELEMENT_SET_NO":"999","MEAN_MOTION_DDOT":"0.0000000000000","ARG_OF_PERICENTER":"282.8015","SITE":"AFWTR","INCLINATION":"69.9988","REV_AT_EPOCH":"368","GP_ID":"193018277","CLASSIFICATION_TYPE":"U","MEAN_MOTION_DOT":"0.00063853"},{"NORAD_CAT_ID":"49175","APOAPSIS":"361.940","MEAN_MOTION":"15.69733244","OBJECT_NAME":"STARLINK-3087","TIME_SYSTEM":"UTC","COUNTRY_CODE":"US","LAUNCH_DATE":"2021-09-14","DECAY_DATE":null,"MEAN_ELEMENT_THEORY":"SGP4","EPOCH":"2022-01-03T22:00:00.999936","PERIOD":"91.735","SEMIMAJOR_AXIS":"6737.797","OBJECT_TYPE":"PAYLOAD","CENTER_NAME":"EARTH","REF_FRAME":"TEME","RA_OF_ASC_NODE":"172.5508","TLE_LINE1":"1 49175U 21082AX  22003.91667824  .00065430  00000-0  54597-3 0  9990","PERIAPSIS":"357.384","RCS_SIZE":"LARGE","EPHEMERIS_TYPE":"0","FILE":"3256498","ARG_OF_PERICENTER":"280.2806","INCLINATION":"69.9986","SITE":"AFWTR","REV_AT_EPOCH":"368","MEAN_MOTION_DOT":"0.00065430","GP_ID":"193019023","CLASSIFICATION_TYPE":"U","MEAN_ANOMALY":"270.8427","ELEMENT_SET_NO":"999","MEAN_MOTION_DDOT":"0.0000000000000","OBJECT_ID":"2021-082AX","TLE_LINE2":"2 49175  69.9986 172.5508 0003381 280.2806 270.8427 15.69733244  3685","BSTAR":"0.00054597000000","ECCENTRICITY":"0.00033810"},{"CENTER_NAME":"EARTH","REF_FRAME":"TEME","TLE_LINE1":"1 49176U 21082AY  22003.91667824  .00065019  00000-0  54254-3 0  9994","RA_OF_ASC_NODE":"172.5382","EPOCH":"2022-01-03T22:00:00.999936","MEAN_ELEMENT_THEORY":"SGP4","PERIOD":"91.735","SEMIMAJOR_AXIS":"6737.795","OBJECT_TYPE":"PAYLOAD","COUNTRY_CODE":"US","LAUNCH_DATE":"2021-09-14","DECAY_DATE":null,"MEAN_MOTION":"15.69733874","APOAPSIS":"362.071","NORAD_CAT_ID":"49176","TIME_SYSTEM":"UTC","OBJECT_NAME":"STARLINK-3069","BSTAR":"0.00054254000000","ECCENTRICITY":"0.00035780","TLE_LINE2":"2 49176  69.9998 172.5382 0003578 278.5060 281.0668 15.69733874  3689","OBJECT_ID":"2021-082AY","SITE":"AFWTR","REV_AT_EPOCH":"368","INCLINATION":"69.9998","ARG_OF_PERICENTER":"278.5060","GP_ID":"193019279","CLASSIFICATION_TYPE":"U","MEAN_MOTION_DOT":"0.00065019","ELEMENT_SET_NO":"999","MEAN_ANOMALY":"281.0668","MEAN_MOTION_DDOT":"0.0000000000000","PERIAPSIS":"357.250","RCS_SIZE":"LARGE","EPHEMERIS_TYPE":"0","FILE":"3256498"},{"FILE":"3256498","PERIAPSIS":"357.278","RCS_SIZE":"LARGE","EPHEMERIS_TYPE":"0","ELEMENT_SET_NO":"999","MEAN_ANOMALY":"272.0318","MEAN_MOTION_DDOT":"0.0000000000000","REV_AT_EPOCH":"368","SITE":"AFWTR","INCLINATION":"69.9992","ARG_OF_PERICENTER":"281.1852","CLASSIFICATION_TYPE":"U","GP_ID":"193020020","MEAN_MOTION_DOT":"0.00064025","TLE_LINE2":"2 49177  69.9992 172.5466 0003531 281.1852 272.0318 15.69735064  3680","OBJECT_ID":"2021-082AZ","BSTAR":"0.00053432000000","ECCENTRICITY":"0.00035310","OBJECT_NAME":"STARLINK-3103","TIME_SYSTEM":"UTC","MEAN_MOTION":"15.69735064","APOAPSIS":"362.036","NORAD_CAT_ID":"49177","LAUNCH_DATE":"2021-09-14","DECAY_DATE":null,"COUNTRY_CODE":"US","SEMIMAJOR_AXIS":"6737.792","OBJECT_TYPE":"PAYLOAD","EPOCH":"2022-01-03T22:00:00.999936","MEAN_ELEMENT_THEORY":"SGP4","PERIOD":"91.735","TLE_LINE1":"1 49177U 21082AZ  22003.91667824  .00064025  00000-0  53432-3 0  9998","RA_OF_ASC_NODE":"172.5466","CENTER_NAME":"EARTH","REF_FRAME":"TEME"},{"MEAN_MOTION":"14.98308312","APOAPSIS":"574.458","NORAD_CAT_ID":"49178","OBJECT_NAME":"STARLINK-3086","TIME_SYSTEM":"UTC","COUNTRY_CODE":"US","DECAY_DATE":null,"LAUNCH_DATE":"2021-09-14","PERIOD":"96.108","EPOCH":"2022-01-03T22:00:00.999936","MEAN_ELEMENT_THEORY":"SGP4","OBJECT_TYPE":"PAYLOAD","SEMIMAJOR_AXIS":"6950.260","REF_FRAME":"TEME","CENTER_NAME":"EARTH","TLE_LINE1":"1 49178U 21082BA  22003.91667824  .00040472  00000-0  33820-2 0  9997","RA_OF_ASC_NODE":"181.4818","RCS_SIZE":"LARGE","EPHEMERIS_TYPE":"0","PERIAPSIS":"569.792","FILE":"3256498","GP_ID":"193018773","CLASSIFICATION_TYPE":"U","MEAN_MOTION_DOT":"0.00040472","INCLINATION":"69.9955","SITE":"AFWTR","REV_AT_EPOCH":"359","ARG_OF_PERICENTER":"285.5223","MEAN_MOTION_DDOT":"0.0000000000000","ELEMENT_SET_NO":"999","MEAN_ANOMALY":"233.6599","TLE_LINE2":"2 49178  69.9955 181.4818 0003357 285.5223 233.6599 14.98308312  3593","OBJECT_ID":"2021-082BA","ECCENTRICITY":"0.00033570","BSTAR":"0.00338200000000"},{"ECCENTRICITY":"0.00033480","BSTAR":"0.00054039000000","TLE_LINE2":"2 49179  69.9987 172.5473 0003348 280.0483 275.2896 15.69727640  3685","OBJECT_ID":"2021-082BB","MEAN_MOTION_DOT":"0.00064739","GP_ID":"193018528","CLASSIFICATION_TYPE":"U","SITE":"AFWTR","INCLINATION":"69.9987","REV_AT_EPOCH":"368","ARG_OF_PERICENTER":"280.0483","MEAN_MOTION_DDOT":"0.0000000000000","ELEMENT_SET_NO":"999","MEAN_ANOMALY":"275.2896","RCS_SIZE":"LARGE","EPHEMERIS_TYPE":"0","PERIAPSIS":"357.422","FILE":"3256498","REF_FRAME":"TEME","CENTER_NAME":"EARTH","TLE_LINE1":"1 49179U 21082BB  22003.91667824  .00064739  00000-0  54039-3 0  9996","RA_OF_ASC_NODE":"172.5473","PERIOD":"91.736","EPOCH":"2022-01-03T22:00:00.999936","MEAN_ELEMENT_THEORY":"SGP4","OBJECT_TYPE":"PAYLOAD","SEMIMAJOR_AXIS":"6737.813","COUNTRY_CODE":"US","DECAY_DATE":null,"LAUNCH_DATE":"2021-09-14","MEAN_MOTION":"15.69727640","APOAPSIS":"361.934","NORAD_CAT_ID":"49179","TIME_SYSTEM":"UTC","OBJECT_NAME":"STARLINK-3043"},{"COUNTRY_CODE":"US","LAUNCH_DATE":"2021-09-14","DECAY_DATE":null,"APOAPSIS":"361.973","NORAD_CAT_ID":"49180","MEAN_MOTION":"15.69758757","OBJECT_NAME":"STARLINK-3050","TIME_SYSTEM":"UTC","CENTER_NAME":"EARTH","REF_FRAME":"TEME","RA_OF_ASC_NODE":"172.5363","TLE_LINE1":"1 49180U 21082BC  22003.91667824  .00027172  00000-0  22856-3 0  9990","MEAN_ELEMENT_THEORY":"SGP4","EPOCH":"2022-01-03T22:00:00.999936","PERIOD":"91.734","SEMIMAJOR_AXIS":"6737.724","OBJECT_TYPE":"PAYLOAD","ARG_OF_PERICENTER":"279.4112","INCLINATION":"69.9992","SITE":"AFWTR","REV_AT_EPOCH":"368","CLASSIFICATION_TYPE":"U","GP_ID":"193019775","MEAN_MOTION_DOT":"0.00027172","MEAN_ANOMALY":"282.3608","ELEMENT_SET_NO":"999","MEAN_MOTION_DDOT":"0.0000000000000","PERIAPSIS":"357.205","EPHEMERIS_TYPE":"0","RCS_SIZE":"LARGE","FILE":"3256498","BSTAR":"0.00022856000000","ECCENTRICITY":"0.00035380","OBJECT_ID":"2021-082BC","TLE_LINE2":"2 49180  69.9992 172.5363 0003538 279.4112 282.3608 15.69758757  3686"},{"MEAN_MOTION_DDOT":"0.0000000000000","ELEMENT_SET_NO":"999","MEAN_ANOMALY":"347.0083","GP_ID":"193019525","CLASSIFICATION_TYPE":"U","MEAN_MOTION_DOT":"0.00035853","SITE":"AFWTR","INCLINATION":"69.9995","REV_AT_EPOCH":"360","ARG_OF_PERICENTER":"275.0819","FILE":"3256498","RCS_SIZE":"LARGE","EPHEMERIS_TYPE":"0","PERIAPSIS":"569.839","ECCENTRICITY":"0.00032810","BSTAR":"0.00299870000000","TLE_LINE2":"2 49181  69.9995 181.4683 0003281 275.0819 347.0083 14.98310150  3605","OBJECT_ID":"2021-082BD","DECAY_DATE":null,"LAUNCH_DATE":"2021-09-14","COUNTRY_CODE":"US","TIME_SYSTEM":"UTC","OBJECT_NAME":"STARLINK-3059","MEAN_MOTION":"14.98310150","NORAD_CAT_ID":"49181","APOAPSIS":"574.400","TLE_LINE1":"1 49181U 21082BD  22003.91667824  .00035853  00000-0  29987-2 0  9997","RA_OF_ASC_NODE":"181.4683","REF_FRAME":"TEME","CENTER_NAME":"EARTH","OBJECT_TYPE":"PAYLOAD","SEMIMAJOR_AXIS":"6950.254","PERIOD":"96.108","EPOCH":"2022-01-03T22:00:00.999936","MEAN_ELEMENT_THEORY":"SGP4"}];
